{
  "body": [
    {
      "addressee": "Kristen Copeland",
      "streetNumber": "2",
      "streetName": "Valley Farms Ave.",
      "city": "Pataskala",
      "state": "OH",
      "zip": "43062"
    },
    {
      "addressee": "Benjamin Pratt",
      "streetNumber": "28",
      "streetName": "La Sierra Street",
      "city": "Chatsworth",
      "state": "GA",
      "zip": "30705"
    },
    {
      "addressee": "Randall Hopkins",
      "streetNumber": "8903",
      "streetName": "Hill Field St.",
      "city": "Lowell",
      "state": "MA",
      "zip": "01851"
    },
    {
      "addressee": "Jennie Ramsey",
      "streetNumber": "994",
      "streetName": "W. Union St.",
      "city": "Merrimack",
      "state": "NH",
      "zip": "03054"
    },
    {
      "addressee": "Alicia Harris",
      "streetNumber": "8355",
      "streetName": "Hamilton Drive",
      "city": "San Antonio",
      "state": "TX",
      "zip": "78213"
    },
    {
      "addressee": "Nicolas Bishop",
      "streetNumber": "784",
      "streetName": "Elm St.",
      "city": "Cle Elum",
      "state": "WA",
      "zip": "98874"
    },
    {
      "addressee": "Geraldine Park",
      "streetNumber": "941",
      "streetName": "Carson Rd.",
      "city": "Arlington",
      "state": "MA",
      "zip": "02474"
    },
    {
      "addressee": "Abraham Parks",
      "streetNumber": "1",
      "streetName": "Henry St.",
      "city": "New Windsor",
      "state": "NY",
      "zip": "12553"
    },
    {
      "addressee": "Alfonso Bailey",
      "streetNumber": "7326",
      "streetName": "Magnolia Lane",
      "city": "Desoto",
      "state": "TX",
      "zip": "75115"
    },
    {
      "addressee": "Kelly Fuller",
      "streetNumber": "7284",
      "streetName": "College Street",
      "city": "Bemidji",
      "state": "MN",
      "zip": "56601"
    },
    {
      "addressee": "Kyle Riley",
      "streetNumber": "773",
      "streetName": "Eagle St.",
      "city": "Virginia Beach",
      "state": "VA",
      "zip": "23451"
    },
    {
      "addressee": "Andre Lane",
      "streetNumber": "8923",
      "streetName": "West Longbranch Drive",
      "city": "Elizabethton",
      "state": "TN",
      "zip": "37643"
    },
    {
      "addressee": "Felicia Hammond",
      "streetNumber": "9",
      "streetName": "Blackburn St. ",
      "city": "Green Cove Springs",
      "state": "FL",
      "zip": "32043"
    },
    {
      "addressee": "Angelo Hodges",
      "streetNumber": "4",
      "streetName": "Smith St.",
      "city": "Nanuet",
      "state": "NY",
      "zip": "10954"
    }
  ]
}